{
  "type": "FeatureCollection",
  "features": [
    {
      "type": "Feature",
      "properties": {
        "norad_id": 29486,
        "name": "GPS BIIRM-2 (PRN 31)",
        "group": "gps-ops",
        "lat": 50.7667033566393,
        "lon": -81.61263139511289,
        "alt_km": 20016.513633626222,
        "timestamp": "2025-12-15T04:01:20.710115+00:00",
        "meta_object_name": "GPS BIIRM-2 (PRN 31)",
        "meta_object_id": "2006-042A",
        "meta_epoch": "2025-12-14T06:43:38.650944",
        "meta_mean_motion": 2.00554123,
        "meta_eccentricity": 0.01073383,
        "meta_inclination": 54.6943,
        "meta_ra_of_asc_node": 158.6796,
        "meta_arg_of_pericenter": 51.9952,
        "meta_mean_anomaly": 134.6159,
        "meta_ephemeris_type": 0,
        "meta_classification_type": "U",
        "meta_norad_cat_id": 29486,
        "meta_element_set_no": 999,
        "meta_rev_at_epoch": 14068,
        "meta_bstar": 0,
        "meta_mean_motion_dot": 1.01e-06,
        "meta_mean_motion_ddot": 0,
        "tle_line1": "1 29486U 06042A   25348.28030846  .00000101  00000+0  00000+0 0  9994",
        "tle_line2": "2 29486  54.6943 158.6796 0107338  51.9952 134.6159  2.00554123140687"
      },
      "geometry": {
        "type": "Point",
        "coordinates": [
          -81.61263139511289,
          50.7667033566393
        ]
      }
    },
    {
      "type": "Feature",
      "properties": {
        "norad_id": 29601,
        "name": "GPS BIIRM-3 (PRN 12)",
        "group": "gps-ops",
        "lat": 11.399766631845857,
        "lon": 33.1852733005897,
        "alt_km": 20132.01370541729,
        "timestamp": "2025-12-15T04:01:20.710127+00:00",
        "meta_object_name": "GPS BIIRM-3 (PRN 12)",
        "meta_object_id": "2006-052A",
        "meta_epoch": "2025-12-11T22:46:47.068032",
        "meta_mean_motion": 2.00573524,
        "meta_eccentricity": 0.00877389,
        "meta_inclination": 54.9707,
        "meta_ra_of_asc_node": 221.4296,
        "meta_arg_of_pericenter": 87.4221,
        "meta_mean_anomaly": 273.6564,
        "meta_ephemeris_type": 0,
        "meta_classification_type": "U",
        "meta_norad_cat_id": 29601,
        "meta_element_set_no": 999,
        "meta_rev_at_epoch": 13965,
        "meta_bstar": 0,
        "meta_mean_motion_dot": 9e-08,
        "meta_mean_motion_ddot": 0,
        "tle_line1": "1 29601U 06052A   25345.94915588  .00000009  00000+0  00000+0 0  9996",
        "tle_line2": "2 29601  54.9707 221.4296 0087738  87.4221 273.6564  2.00573524139650"
      },
      "geometry": {
        "type": "Point",
        "coordinates": [
          33.1852733005897,
          11.399766631845857
        ]
      }
    },
    {
      "type": "Feature",
      "properties": {
        "norad_id": 32260,
        "name": "GPS BIIRM-4 (PRN 15)",
        "group": "gps-ops",
        "lat": -42.21499758872821,
        "lon": 46.369996718848384,
        "alt_km": 20524.595984682404,
        "timestamp": "2025-12-15T04:01:20.710140+00:00",
        "meta_object_name": "GPS BIIRM-4 (PRN 15)",
        "meta_object_id": "2007-047A",
        "meta_epoch": "2025-12-13T18:00:56.680128",
        "meta_mean_motion": 2.00564495,
        "meta_eccentricity": 0.0164139,
        "meta_inclination": 53.9559,
        "meta_ra_of_asc_node": 87.7167,
        "meta_arg_of_pericenter": 85.2596,
        "meta_mean_anomaly": 276.6041,
        "meta_ephemeris_type": 0,
        "meta_classification_type": "U",
        "meta_norad_cat_id": 32260,
        "meta_element_set_no": 999,
        "meta_rev_at_epoch": 13309,
        "meta_bstar": 0,
        "meta_mean_motion_dot": -4.4e-07,
        "meta_mean_motion_ddot": 0,
        "tle_line1": "1 32260U 07047A   25347.75065602 -.00000044  00000+0  00000+0 0  9990",
        "tle_line2": "2 32260  53.9559  87.7167 0164139  85.2596 276.6041  2.00564495133093"
      },
      "geometry": {
        "type": "Point",
        "coordinates": [
          46.369996718848384,
          -42.21499758872821
        ]
      }
    },
    {
      "type": "Feature",
      "properties": {
        "norad_id": 32384,
        "name": "GPS BIIRM-5 (PRN 29)",
        "group": "gps-ops",
        "lat": 52.0998290041162,
        "lon": -15.229578701852345,
        "alt_km": 20172.233330295647,
        "timestamp": "2025-12-15T04:01:20.710156+00:00",
        "meta_object_name": "GPS BIIRM-5 (PRN 29)",
        "meta_object_id": "2007-062A",
        "meta_epoch": "2025-12-14T07:22:44.014368",
        "meta_mean_motion": 2.00577433,
        "meta_eccentricity": 0.00322391,
        "meta_inclination": 55.1808,
        "meta_ra_of_asc_node": 281.583,
        "meta_arg_of_pericenter": 162.4014,
        "meta_mean_anomaly": 10.7862,
        "meta_ephemeris_type": 0,
        "meta_classification_type": "U",
        "meta_norad_cat_id": 32384,
        "meta_element_set_no": 999,
        "meta_rev_at_epoch": 13180,
        "meta_bstar": 0,
        "meta_mean_motion_dot": -7.8e-07,
        "meta_mean_motion_ddot": 0,
        "tle_line1": "1 32384U 07062A   25348.30745387 -.00000078  00000+0  00000+0 0  9998",
        "tle_line2": "2 32384  55.1808 281.5830 0032239 162.4014  10.7862  2.00577433131801"
      },
      "geometry": {
        "type": "Point",
        "coordinates": [
          -15.229578701852345,
          52.0998290041162
        ]
      }
    },
    {
      "type": "Feature",
      "properties": {
        "norad_id": 32711,
        "name": "GPS BIIRM-6 (PRN 07)",
        "group": "gps-ops",
        "lat": 0.5397363446859088,
        "lon": 157.65428875558985,
        "alt_km": 20406.297710532075,
        "timestamp": "2025-12-15T04:01:20.710168+00:00",
        "meta_object_name": "GPS BIIRM-6 (PRN 07)",
        "meta_object_id": "2008-012A",
        "meta_epoch": "2025-12-13T16:06:10.352160",
        "meta_mean_motion": 2.00565694,
        "meta_eccentricity": 0.02024855,
        "meta_inclination": 54.4771,
        "meta_ra_of_asc_node": 157.3357,
        "meta_arg_of_pericenter": 244.9586,
        "meta_mean_anomaly": 112.9395,
        "meta_ephemeris_type": 0,
        "meta_classification_type": "U",
        "meta_norad_cat_id": 32711,
        "meta_element_set_no": 999,
        "meta_rev_at_epoch": 13003,
        "meta_bstar": 0,
        "meta_mean_motion_dot": 1e-06,
        "meta_mean_motion_ddot": 0,
        "tle_line1": "1 32711U 08012A   25347.67095315  .00000100  00000+0  00000+0 0  9991",
        "tle_line2": "2 32711  54.4771 157.3357 0202485 244.9586 112.9395  2.00565694130038"
      },
      "geometry": {
        "type": "Point",
        "coordinates": [
          157.65428875558985,
          0.5397363446859088
        ]
      }
    },
    {
      "type": "Feature",
      "properties": {
        "norad_id": 35752,
        "name": "GPS BIIRM-8 (PRN 05)",
        "group": "gps-ops",
        "lat": 14.82529619366775,
        "lon": 44.9507994743641,
        "alt_km": 20119.1207234239,
        "timestamp": "2025-12-15T04:01:20.710179+00:00",
        "meta_object_name": "GPS BIIRM-8 (PRN 05)",
        "meta_object_id": "2009-043A",
        "meta_epoch": "2025-12-13T15:33:53.607168",
        "meta_mean_motion": 2.00565679,
        "meta_eccentricity": 0.00517811,
        "meta_inclination": 56.0916,
        "meta_ra_of_asc_node": 34.7471,
        "meta_arg_of_pericenter": 81.8933,
        "meta_mean_anomaly": 279.8016,
        "meta_ephemeris_type": 0,
        "meta_classification_type": "U",
        "meta_norad_cat_id": 35752,
        "meta_element_set_no": 999,
        "meta_rev_at_epoch": 11964,
        "meta_bstar": 0,
        "meta_mean_motion_dot": -9.6e-07,
        "meta_mean_motion_ddot": 0,
        "tle_line1": "1 35752U 09043A   25347.64853712 -.00000096  00000+0  00000+0 0  9999",
        "tle_line2": "2 35752  56.0916  34.7471 0051781  81.8933 279.8016  2.00565679119645"
      },
      "geometry": {
        "type": "Point",
        "coordinates": [
          44.9507994743641,
          14.82529619366775
        ]
      }
    },
    {
      "type": "Feature",
      "properties": {
        "norad_id": 36585,
        "name": "GPS BIIF-1  (PRN 25)",
        "group": "gps-ops",
        "lat": 32.78246702426757,
        "lon": 8.417075479130471,
        "alt_km": 20077.698293871024,
        "timestamp": "2025-12-15T04:01:20.710191+00:00",
        "meta_object_name": "GPS BIIF-1  (PRN 25)",
        "meta_object_id": "2010-022A",
        "meta_epoch": "2025-12-14T05:35:49.434720",
        "meta_mean_motion": 2.00553343,
        "meta_eccentricity": 0.01261835,
        "meta_inclination": 54.2999,
        "meta_ra_of_asc_node": 216.0137,
        "meta_arg_of_pericenter": 65.0918,
        "meta_mean_anomaly": 117.1041,
        "meta_ephemeris_type": 0,
        "meta_classification_type": "U",
        "meta_norad_cat_id": 36585,
        "meta_element_set_no": 999,
        "meta_rev_at_epoch": 11388,
        "meta_bstar": 0,
        "meta_mean_motion_dot": 4.9e-07,
        "meta_mean_motion_ddot": 0,
        "tle_line1": "1 36585U 10022A   25348.23321105  .00000049  00000+0  00000+0 0  9992",
        "tle_line2": "2 36585  54.2999 216.0137 0126183  65.0918 117.1041  2.00553343113888"
      },
      "geometry": {
        "type": "Point",
        "coordinates": [
          8.417075479130471,
          32.78246702426757
        ]
      }
    }
  ]
}